[
    {
        "Altitude(m)": 607886.71130701,
        "Argument of Periapsis(deg)": 0.0,
        "Eccentricity": 0.0,
        "Inclination(deg)": 60.0,
        "Latitude(deg)": 40.9984974437294,
        "Longitude(deg)": 174.97303554967488,
        "Mean Anomaly(deg)": 49.09089999999999,
        "RAAN(deg)": 245.0,
        "Satellite Name": "Test1 1081",
        "Satellite Number": 1081,
        "Semi-Major Axis(m)": 6980739.136638005,
        "Time(s)": 0
    },
    {
        "Altitude(m)": 607987.6251799813,
        "Argument of Periapsis(deg)": 0.00010418945913296404,
        "Eccentricity": 0.0,
        "Inclination(deg)": 60.0,
        "Latitude(deg)": 41.463586941603765,
        "Longitude(deg)": 175.4772647591711,
        "Mean Anomaly(deg)": 49.711006145461795,
        "RAAN(deg)": 244.99957995086027,
        "Satellite Name": "Test1 1081",
        "Satellite Number": 1081,
        "Semi-Major Axis(m)": 6980739.136638005,
        "Time(s)": 10
    }
]